[{"OBJECT_NAME":"STARLINK-35565","OBJECT_ID":"2025-278N","EPOCH":"2026-03-05T13:18:06.450048","MEAN_MOTION":15.27571948,"ECCENTRICITY":0.00031641,"INCLINATION":43.0028,"RA_OF_ASC_NODE":137.9827,"ARG_OF_PERICENTER":264.8227,"MEAN_ANOMALY":95.2264,"EPHEMERIS_TYPE":0,"CLASSIFICATION_TYPE":"U","NORAD_CAT_ID":66803,"ELEMENT_SET_NO":999,"REV_AT_EPOCH":1457,"BSTAR":0.0010019951,"MEAN_MOTION_DOT":0.00027409,"MEAN_MOTION_DDOT":0},{"OBJECT_NAME":"STARLINK-36038","OBJECT_ID":"2025-278P","EPOCH":"2026-03-05T06:13:22.766592","MEAN_MOTION":15.27592165,"ECCENTRICITY":0.00014639,"INCLINATION":43.002,"RA_OF_ASC_NODE":139.2038,"ARG_OF_PERICENTER":282.4912,"MEAN_ANOMALY":77.5776,"EPHEMERIS_TYPE":0,"CLASSIFICATION_TYPE":"U","NORAD_CAT_ID":66804,"ELEMENT_SET_NO":999,"REV_AT_EPOCH":1453,"BSTAR":0.00099959403,"MEAN_MOTION_DOT":0.00027357,"MEAN_MOTION_DDOT":0},{"OBJECT_NAME":"STARLINK-36049","OBJECT_ID":"2025-278Q","EPOCH":"2026-03-05T13:21:49.509792","MEAN_MOTION":15.27604487,"ECCENTRICITY":7.774e-5,"INCLINATION":42.9958,"RA_OF_ASC_NODE":137.9978,"ARG_OF_PERICENTER":253.2834,"MEAN_ANOMALY":106.7933,"EPHEMERIS_TYPE":0,"CLASSIFICATION_TYPE":"U","NORAD_CAT_ID":66805,"ELEMENT_SET_NO":999,"REV_AT_EPOCH":1457,"BSTAR":0.00097079961,"MEAN_MOTION_DOT":0.00026568,"MEAN_MOTION_DDOT":0},{"OBJECT_NAME":"STARLINK-36069","OBJECT_ID":"2025-278R","EPOCH":"2026-03-05T15:01:31.847520","MEAN_MOTION":15.275607,"ECCENTRICITY":0.00014049,"INCLINATION":42.9991,"RA_OF_ASC_NODE":137.6617,"ARG_OF_PERICENTER":248.7714,"MEAN_ANOMALY":111.2988,"EPHEMERIS_TYPE":0,"CLASSIFICATION_TYPE":"U","NORAD_CAT_ID":66806,"ELEMENT_SET_NO":999,"REV_AT_EPOCH":1458,"BSTAR":0.0012571409,"MEAN_MOTION_DOT":0.00034473,"MEAN_MOTION_DDOT":0},{"OBJECT_NAME":"STARLINK-36000","OBJECT_ID":"2025-278S","EPOCH":"2026-03-05T06:18:55.626912","MEAN_MOTION":15.27546819,"ECCENTRICITY":0.00011882,"INCLINATION":43.003,"RA_OF_ASC_NODE":139.2322,"ARG_OF_PERICENTER":279.9261,"MEAN_ANOMALY":80.1456,"EPHEMERIS_TYPE":0,"CLASSIFICATION_TYPE":"U","NORAD_CAT_ID":66807,"ELEMENT_SET_NO":999,"REV_AT_EPOCH":1453,"BSTAR":0.0011020575,"MEAN_MOTION_DOT":0.00030157,"MEAN_MOTION_DDOT":0},{"OBJECT_NAME":"STARLINK-36071","OBJECT_ID":"2025-278T","EPOCH":"2026-03-05T13:38:15.423648","MEAN_MOTION":15.27568782,"ECCENTRICITY":0.0001767,"INCLINATION":43.0015,"RA_OF_ASC_NODE":137.2228,"ARG_OF_PERICENTER":253.1815,"MEAN_ANOMALY":106.8843,"EPHEMERIS_TYPE":0,"CLASSIFICATION_TYPE":"U","NORAD_CAT_ID":66808,"ELEMENT_SET_NO":999,"REV_AT_EPOCH":1458,"BSTAR":0.0012042985,"MEAN_MOTION_DOT":0.00033015,"MEAN_MOTION_DDOT":0},{"OBJECT_NAME":"STARLINK-35979","OBJECT_ID":"2025-278U","EPOCH":"2026-03-05T13:29:13.292160","MEAN_MOTION":15.27553748,"ECCENTRICITY":0.00012994,"INCLINATION":42.9993,"RA_OF_ASC_NODE":138.0368,"ARG_OF_PERICENTER":254.2999,"MEAN_ANOMALY":105.771,"EPHEMERIS_TYPE":0,"CLASSIFICATION_TYPE":"U","NORAD_CAT_ID":66809,"ELEMENT_SET_NO":999,"REV_AT_EPOCH":1457,"BSTAR":0.00090659514,"MEAN_MOTION_DOT":0.00024749,"MEAN_MOTION_DDOT":0},{"OBJECT_NAME":"STARLINK-36046","OBJECT_ID":"2025-278V","EPOCH":"2026-03-05T05:16:13.218816","MEAN_MOTION":15.27583398,"ECCENTRICITY":9.063e-5,"INCLINATION":43.0002,"RA_OF_ASC_NODE":139.7672,"ARG_OF_PERICENTER":265.8678,"MEAN_ANOMALY":94.207,"EPHEMERIS_TYPE":0,"CLASSIFICATION_TYPE":"U","NORAD_CAT_ID":66810,"ELEMENT_SET_NO":999,"REV_AT_EPOCH":1452,"BSTAR":0.00090829488,"MEAN_MOTION_DOT":0.00024819,"MEAN_MOTION_DDOT":0},{"OBJECT_NAME":"STARLINK-36045","OBJECT_ID":"2025-278W","EPOCH":"2026-03-05T11:21:44.476416","MEAN_MOTION":15.27585697,"ECCENTRICITY":0.00012572,"INCLINATION":42.9998,"RA_OF_ASC_NODE":138.2315,"ARG_OF_PERICENTER":294.6676,"MEAN_ANOMALY":65.4045,"EPHEMERIS_TYPE":0,"CLASSIFICATION_TYPE":"U","NORAD_CAT_ID":66811,"ELEMENT_SET_NO":999,"REV_AT_EPOCH":1456,"BSTAR":0.00071780412,"MEAN_MOTION_DOT":0.00019546,"MEAN_MOTION_DDOT":0},{"OBJECT_NAME":"STARLINK-36054","OBJECT_ID":"2025-278X","EPOCH":"2026-03-05T12:52:12.318816","MEAN_MOTION":15.27556618,"ECCENTRICITY":0.00020199,"INCLINATION":43.0018,"RA_OF_ASC_NODE":137.8404,"ARG_OF_PERICENTER":268.6672,"MEAN_ANOMALY":91.3948,"EPHEMERIS_TYPE":0,"CLASSIFICATION_TYPE":"U","NORAD_CAT_ID":66812,"ELEMENT_SET_NO":999,"REV_AT_EPOCH":1457,"BSTAR":0.00099899849,"MEAN_MOTION_DOT":0.00027311,"MEAN_MOTION_DDOT":0},{"OBJECT_NAME":"STARLINK-36042","OBJECT_ID":"2025-278Y","EPOCH":"2026-03-05T13:49:21.622080","MEAN_MOTION":15.27566303,"ECCENTRICITY":0.00012278,"INCLINATION":42.9995,"RA_OF_ASC_NODE":137.2719,"ARG_OF_PERICENTER":252.5962,"MEAN_ANOMALY":107.4755,"EPHEMERIS_TYPE":0,"CLASSIFICATION_TYPE":"U","NORAD_CAT_ID":66813,"ELEMENT_SET_NO":999,"REV_AT_EPOCH":1458,"BSTAR":0.0010039513,"MEAN_MOTION_DOT":0.00027456,"MEAN_MOTION_DDOT":0},{"OBJECT_NAME":"STARLINK-35984","OBJECT_ID":"2025-278Z","EPOCH":"2026-03-05T14:00:01.999872","MEAN_MOTION":15.27540256,"ECCENTRICITY":0.00011495,"INCLINATION":43.0019,"RA_OF_ASC_NODE":137.2691,"ARG_OF_PERICENTER":257.3426,"MEAN_ANOMALY":129.3911,"EPHEMERIS_TYPE":0,"CLASSIFICATION_TYPE":"U","NORAD_CAT_ID":66814,"ELEMENT_SET_NO":999,"REV_AT_EPOCH":584,"BSTAR":0.0019157501,"MEAN_MOTION_DOT":0.00052769,"MEAN_MOTION_DDOT":0},{"OBJECT_NAME":"STARLINK-35985","OBJECT_ID":"2025-278AA","EPOCH":"2026-03-05T06:30:02.011104","MEAN_MOTION":15.27600882,"ECCENTRICITY":0.00016107,"INCLINATION":43.0036,"RA_OF_ASC_NODE":139.2836,"ARG_OF_PERICENTER":288.2686,"MEAN_ANOMALY":71.799,"EPHEMERIS_TYPE":0,"CLASSIFICATION_TYPE":"U","NORAD_CAT_ID":66815,"ELEMENT_SET_NO":999,"REV_AT_EPOCH":1574,"BSTAR":0.00099008078,"MEAN_MOTION_DOT":0.000271,"MEAN_MOTION_DDOT":0},{"OBJECT_NAME":"STARLINK-36098","OBJECT_ID":"2025-278AB","EPOCH":"2026-03-05T13:40:06.533184","MEAN_MOTION":15.27567038,"ECCENTRICITY":0.00013077,"INCLINATION":43.0007,"RA_OF_ASC_NODE":137.2257,"ARG_OF_PERICENTER":248.8248,"MEAN_ANOMALY":111.2464,"EPHEMERIS_TYPE":0,"CLASSIFICATION_TYPE":"U","NORAD_CAT_ID":66816,"ELEMENT_SET_NO":999,"REV_AT_EPOCH":1458,"BSTAR":0.0011140376,"MEAN_MOTION_DOT":0.00030509,"MEAN_MOTION_DDOT":0},{"OBJECT_NAME":"STARLINK-35995","OBJECT_ID":"2025-278AC","EPOCH":"2026-03-05T06:24:28.826784","MEAN_MOTION":15.27560217,"ECCENTRICITY":6.981e-5,"INCLINATION":42.9989,"RA_OF_ASC_NODE":139.2536,"ARG_OF_PERICENTER":250.7936,"MEAN_ANOMALY":109.284,"EPHEMERIS_TYPE":0,"CLASSIFICATION_TYPE":"U","NORAD_CAT_ID":66817,"ELEMENT_SET_NO":999,"REV_AT_EPOCH":1453,"BSTAR":0.00094750983,"MEAN_MOTION_DOT":0.00025887,"MEAN_MOTION_DDOT":0},{"OBJECT_NAME":"STARLINK-35994","OBJECT_ID":"2025-278AD","EPOCH":"2026-03-05T14:18:58.399200","MEAN_MOTION":15.27567966,"ECCENTRICITY":0.00021539,"INCLINATION":43.0048,"RA_OF_ASC_NODE":137.4363,"ARG_OF_PERICENTER":296.498,"MEAN_ANOMALY":63.5651,"EPHEMERIS_TYPE":0,"CLASSIFICATION_TYPE":"U","NORAD_CAT_ID":66818,"ELEMENT_SET_NO":999,"REV_AT_EPOCH":1458,"BSTAR":0.0011466279,"MEAN_MOTION_DOT":0.00031414,"MEAN_MOTION_DDOT":0}]
