STARLINK-35565          
1 66803U 25278N   26064.55424132  .00027409  00000+0  10020-2 0  9997
2 66803  43.0028 137.9827 0003164 264.8227  95.2264 15.27571948 14578
STARLINK-36038          
1 66804U 25278P   26064.25929128  .00027357  00000+0  99959-3 0  9991
2 66804  43.0020 139.2038 0001463 282.4912  77.5776 15.27592165 14538
STARLINK-36049          
1 66805U 25278Q   26064.55682303  .00026568  00000+0  97080-3 0  9992
2 66805  42.9958 137.9978 0000777 253.2834 106.7933 15.27604487 14576
STARLINK-36069          
1 66806U 25278R   26064.62606305  .00034473  00000+0  12571-2 0  9994
2 66806  42.9991 137.6617 0001404 248.7714 111.2988 15.27560700 14586
STARLINK-36000          
1 66807U 25278S   26064.26314383  .00030157  00000+0  11021-2 0  9991
2 66807  43.0030 139.2322 0001188 279.9261  80.1456 15.27546819 14530
STARLINK-36071          
1 66808U 25278T   26064.56823407  .00033015  00000+0  12043-2 0  9998
2 66808  43.0015 137.2228 0001767 253.1815 106.8843 15.27568782 14583
STARLINK-35979          
1 66809U 25278U   26064.56195940  .00024749  00000+0  90660-3 0  9999
2 66809  42.9993 138.0368 0001299 254.2999 105.7710 15.27553748 14572
STARLINK-36046          
1 66810U 25278V   26064.21959744  .00024819  00000+0  90829-3 0  9998
2 66810  43.0002 139.7672 0000906 265.8678  94.2070 15.27583398 14529
STARLINK-36045          
1 66811U 25278W   26064.47343144  .00019546  00000+0  71780-3 0  9994
2 66811  42.9998 138.2315 0001257 294.6676  65.4045 15.27585697 14568
STARLINK-36054          
1 66812U 25278X   26064.53625369  .00027311  00000+0  99900-3 0  9997
2 66812  43.0018 137.8404 0002019 268.6672  91.3948 15.27556618 14574
STARLINK-36042          
1 66813U 25278Y   26064.57594470  .00027456  00000+0  10040-2 0  9997
2 66813  42.9995 137.2719 0001227 252.5962 107.4755 15.27566303 14582
STARLINK-35984          
1 66814U 25278Z   26064.58335648  .00052769  00000+0  19158-2 0  9993
2 66814  43.0019 137.2691 0001149 257.3426 129.3911 15.27540256  5847
STARLINK-35985          
1 66815U 25278AA  26064.27085661  .00027100  00000+0  99008-3 0  9991
2 66815  43.0036 139.2836 0001610 288.2686  71.7990 15.27600882 15743
STARLINK-36098          
1 66816U 25278AB  26064.56952006  .00030509  00000+0  11140-2 0  9997
2 66816  43.0007 137.2257 0001307 248.8248 111.2464 15.27567038 14588
STARLINK-35995          
1 66817U 25278AC  26064.26700031  .00025887  00000+0  94751-3 0  9997
2 66817  42.9989 139.2536 0000698 250.7936 109.2840 15.27560217 14538
STARLINK-35994          
1 66818U 25278AD  26064.59650925  .00031414  00000+0  11466-2 0  9994
2 66818  43.0048 137.4363 0002153 296.4980  63.5651 15.27567966 14584
